NORAD_CAT_ID,OBJECT_NAME,OBJECT_TYPE,EPOCH,MEAN_MOTION,ECCENTRICITY,INCLINATION,RA_OF_ASC_NODE,ARG_OF_PERICENTER,MEAN_ANOMALY,BSTAR,MEAN_MOTION_DOT,MEAN_MOTION_DDOT,TLE_LINE0,TLE_LINE1,TLE_LINE2,SEMIMAJOR_AXIS,PERIOD,APOGEE,PERIGEE,DECAYED
52120.0,STARLINK-3534,PAYLOAD,2024-06-07 21:59:50,15.08833681,0.0001516,53.2194,71.1757,94.3152,265.8014,3.7752e-05,3.13e-06,0.0,0 STARLINK-3534,1 52120U 22029AJ  24159.91656162  .00000313  00000-0  37752-4 0  9997,2 52120  53.2194  71.1757 0001516  94.3152 265.8014 15.08833681124210,6917.9,95.438,540.813,538.716,0.0
52120.0,STARLINK-3534,PAYLOAD,2024-06-08 01:10:36,15.08838208,0.0001213,53.2165,70.5802,116.3431,243.7686,0.0001002,1.307e-05,0.0,0 STARLINK-3534,1 52120U 22029AJ  24160.04903540  .00001307  00000-0  10020-3 0  9990,2 52120  53.2165  70.5802 0001213 116.3431 243.7686 15.08838208124233,6917.886,95.438,540.59,538.912,0.0
52120.0,STARLINK-3534,PAYLOAD,2024-06-08 10:42:54,15.08851704,0.0001485,53.2194,68.7946,94.5996,265.5165,0.00020703,3.009e-05,0.0,0 STARLINK-3534,1 52120U 22029AJ  24160.44646431  .00003009  00000-0  20703-3 0  9997,2 52120  53.2194  68.7946 0001485  94.5996 265.5165 15.08851704124293,6917.845,95.437,540.737,538.682,0.0
52120.0,STARLINK-3534,PAYLOAD,2024-06-08 17:04:28,15.08838596,0.0001926,53.2181,67.6052,82.7021,277.419,-6.8357e-05,-1.376e-05,0.0,0 STARLINK-3534,1 52120U 22029AJ  24160.71144368 -.00001376  00000-0 -68357-4 0  9994,2 52120  53.2181  67.6052 0001926  82.7021 277.4190 15.08838596124332,6917.885,95.438,541.082,538.417,0.0
52120.0,STARLINK-3534,PAYLOAD,2024-06-08 21:50:38,15.08829098,0.0001832,53.2183,66.7139,84.3723,275.7478,-0.00012808,-2.325e-05,0.0,0 STARLINK-3534,1 52120U 22029AJ  24160.91017217 -.00002325  00000-0 -12808-3 0  9992,2 52120  53.2183  66.7139 0001832  84.3723 275.7478 15.08829098124363,6917.914,95.438,541.046,538.511,0.0
52120.0,STARLINK-3534,PAYLOAD,2024-06-09 02:36:47,15.08838756,0.0001079,53.2178,65.8202,87.5202,272.5913,-6.2994e-05,-1.29e-05,0.0,0 STARLINK-3534,1 52120U 22029AJ  24161.10888293 -.00001290  00000-0 -62994-4 0  9996,2 52120  53.2178  65.8202 0001079  87.5202 272.5913 15.08838756124391,6917.884,95.438,540.496,539.003,0.0
52120.0,STARLINK-3534,PAYLOAD,2024-06-09 21:41:25,15.08834945,0.0001487,53.2183,62.2543,94.8667,265.2495,0.00010842,1.438e-05,0.0,0 STARLINK-3534,1 52120U 22029AJ  24161.90376469  .00001438  00000-0  10842-3 0  9997,2 52120  53.2183  62.2543 0001487  94.8667 265.2495 15.08834945124519,6917.896,95.438,540.79,538.732,0.0
52120.0,STARLINK-3534,PAYLOAD,2024-06-10 02:27:34,15.08840324,0.0001356,53.2167,61.3622,91.9846,268.1302,0.0001039,1.366e-05,0.0,0 STARLINK-3534,1 52120U 22029AJ  24162.10248127  .00001366  00000-0  10390-3 0  9997,2 52120  53.2167  61.3622 0001356  91.9846 268.1302 15.08840324124541,6917.879,95.438,540.682,538.806,0.0
52120.0,STARLINK-3534,PAYLOAD,2024-06-10 10:24:29,15.08853268,0.0001475,53.2177,59.8724,77.0977,283.018,0.00019357,2.795e-05,0.0,0 STARLINK-3534,1 52120U 22029AJ  24162.43367540  .00002795  00000-0  19357-3 0  9993,2 52120  53.2177  59.8724 0001475  77.0977 283.0180 15.08853268124595,6917.84,95.437,540.725,538.684,0.0
52120.0,STARLINK-3534,PAYLOAD,2024-06-10 23:07:35,15.0883004,0.000114,53.2165,57.4938,86.0179,274.0944,0.00013387,1.843e-05,0.0,0 STARLINK-3534,1 52120U 22029AJ  24162.96360822  .00001843  00000-0  13387-3 0  9997,2 52120  53.2165  57.4938 0001140  86.0179 274.0944 15.08830040124676,6917.911,95.438,540.564,538.987,0.0
52120.0,STARLINK-3534,PAYLOAD,2024-06-11 02:18:21,15.08841907,0.0001414,53.2175,56.8972,83.5704,276.5449,0.00020147,2.92e-05,0.0,0 STARLINK-3534,1 52120U 22029AJ  24163.09608482  .00002920  00000-0  20147-3 0  9998,2 52120  53.2175  56.8972 0001414  83.5704 276.5449 15.08841907124691,6917.875,95.437,540.718,538.761,0.0
52120.0,STARLINK-3534,PAYLOAD,2024-06-11 10:15:16,15.08855173,0.000147,53.2173,55.4143,80.5535,279.5623,0.0003906,5.936e-05,0.0,0 STARLINK-3534,1 52120U 22029AJ  24163.42727760  .00005936  00000-0  39060-3 0  9990,2 52120  53.2173  55.4143 0001470  80.5535 279.5623 15.08855173124748,6917.834,95.437,540.716,538.682,0.0
52120.0,STARLINK-3534,PAYLOAD,2024-06-11 22:58:22,15.088489,0.0001508,53.2172,53.0352,92.2417,267.8748,0.0002071,3.01e-05,0.0,0 STARLINK-3534,1 52120U 22029AJ  24163.95719961  .00003010  00000-0  20710-3 0  9995,2 52120  53.2172  53.0352 0001508  92.2417 267.8748 15.08848900124821,6917.853,95.437,540.761,538.675,0.0
52120.0,STARLINK-3534,PAYLOAD,2024-06-12 10:06:03,15.08850784,0.0001604,53.2175,50.9475,104.9835,255.1335,0.00020934,3.046e-05,0.0,0 STARLINK-3534,1 52120U 22029AJ  24164.42087534  .00003046  00000-0  20934-3 0  9999,2 52120  53.2175  50.9475 0001604 104.9835 255.1335 15.08850784124890,6917.847,95.437,540.822,538.603,0.0
52120.0,STARLINK-3534,PAYLOAD,2024-06-12 21:13:46,15.08831969,0.0001553,53.2171,48.8726,72.3999,287.7163,-5.9761e-05,-1.239e-05,0.0,0 STARLINK-3534,1 52120U 22029AJ  24164.88456465 -.00001239  00000-0 -59761-4 0  9997,2 52120  53.2171  48.8726 0001553  72.3999 287.7163 15.08831969124965,6917.905,95.438,540.844,538.696,0.0
52120.0,STARLINK-3534,PAYLOAD,2024-06-13 01:59:55,15.08837033,0.0001588,53.218,47.9771,94.0672,266.0502,-5.3693e-06,-3.73e-06,0.0,0 STARLINK-3534,1 52120U 22029AJ  24165.08328192 -.00000373  00000-0 -53693-5 0  9992,2 52120  53.2180  47.9771 0001588  94.0672 266.0502 15.08837033124990,6917.889,95.438,540.853,538.656,0.0
52120.0,STARLINK-3534,PAYLOAD,2024-06-13 22:39:56,15.08841298,0.0001511,53.2179,44.1108,93.8198,266.2967,0.00027774,4.135e-05,0.0,0 STARLINK-3534,1 52120U 22029AJ  24165.94440457  .00004135  00000-0  27774-3 0  9993,2 52120  53.2179  44.1108 0001511  93.8198 266.2967 15.08841298125128,6917.876,95.437,540.787,538.696,0.0
52120.0,STARLINK-3534,PAYLOAD,2024-06-14 20:55:20,15.08843823,0.0001463,53.2181,39.9487,84.6668,275.4491,0.00030163,4.516e-05,0.0,0 STARLINK-3534,1 52120U 22029AJ  24166.87176672  .00004516  00000-0  30163-3 0  9990,2 52120  53.2181  39.9487 0001463  84.6668 275.4491 15.08843823125264,6917.869,95.437,540.746,538.722,0.0
52120.0,STARLINK-3534,PAYLOAD,2024-06-15 14:24:34,15.08850102,0.0001471,53.2191,36.6844,106.6256,253.4898,0.00025971,3.849e-05,0.0,0 STARLINK-3534,1 52120U 22029AJ  24167.60040197  .00003849  00000-0  25971-3 0  9993,2 52120  53.2191  36.6844 0001471 106.6256 253.4898 15.08850102125370,6917.85,95.437,540.732,538.697,0.0
52120.0,STARLINK-3534,PAYLOAD,2024-06-15 22:21:30,15.08843606,0.0001402,53.2179,35.194,91.0984,269.0169,0.00014088,1.955e-05,0.0,0 STARLINK-3534,1 52120U 22029AJ  24167.93160472  .00001955  00000-0  14088-3 0  9991,2 52120  53.2179  35.1940 0001402  91.0984 269.0169 15.08843606125427,6917.869,95.437,540.704,538.764,0.0
52120.0,STARLINK-3534,PAYLOAD,2024-06-16 07:53:49,15.08851008,0.0001426,53.2182,33.4097,92.9407,267.1749,0.0002976,4.453e-05,0.0,0 STARLINK-3534,1 52120U 22029AJ  24168.32904173  .00004453  00000-0  29760-3 0  9998,2 52120  53.2182  33.4097 0001426  92.9407 267.1749 15.08851008125485,6917.847,95.437,540.698,538.725,0.0
52120.0,STARLINK-3534,PAYLOAD,2024-06-16 22:12:17,15.08837063,0.0001396,53.2181,30.7328,97.2212,262.8939,3.7696e-05,3.12e-06,0.0,0 STARLINK-3534,1 52120U 22029AJ  24168.92520775  .00000312  00000-0  37696-4 0  9994,2 52120  53.2181  30.7328 0001396  97.2212 262.8939 15.08837063125577,6917.889,95.438,540.72,538.789,0.0
52120.0,STARLINK-3534,PAYLOAD,2024-06-17 20:27:42,15.08835624,0.000143,53.2179,26.57,87.6305,272.485,0.00014593,2.035e-05,0.0,0 STARLINK-3534,1 52120U 22029AJ  24169.85257185  .00002035  00000-0  14593-3 0  9993,2 52120  53.2179  26.5700 0001430  87.6305 272.4850 15.08835624125712,6917.894,95.438,540.748,538.77,0.0
52120.0,STARLINK-3534,PAYLOAD,2024-06-17 22:03:05,15.08837054,0.0001375,53.2179,26.2719,87.2371,272.8778,0.00012582,1.715e-05,0.0,0 STARLINK-3534,1 52120U 22029AJ  24169.91881109  .00001715  00000-0  12582-3 0  9999,2 52120  53.2179  26.2719 0001375  87.2371 272.8778 15.08837054125729,6917.889,95.438,540.706,538.803,0.0
52120.0,STARLINK-3534,PAYLOAD,2024-06-18 07:35:23,15.08851352,0.0001328,53.2174,24.4861,85.8263,274.2881,0.00033937,5.119e-05,0.0,0 STARLINK-3534,1 52120U 22029AJ  24170.31624515  .00005119  00000-0  33937-3 0  9990,2 52120  53.2174  24.4861 0001328  85.8263 274.2881 15.08851352125788,6917.846,95.437,540.629,538.792,0.0
52120.0,STARLINK-3534,PAYLOAD,2024-06-18 20:18:29,15.08840251,0.0001248,53.2164,22.1094,90.2096,269.9039,0.00011592,1.557e-05,0.0,0 STARLINK-3534,1 52120U 22029AJ  24170.84616971  .00001557  00000-0  11592-3 0  9990,2 52120  53.2164  22.1094 0001248  90.2096 269.9039 15.08840251125866,6917.88,95.438,540.608,538.881,0.0
52120.0,STARLINK-3534,PAYLOAD,2024-06-19 07:26:10,15.08848809,0.0001366,53.2169,20.0275,87.6605,272.4543,0.00027075,4.025e-05,0.0,0 STARLINK-3534,1 52120U 22029AJ  24171.30984645  .00004025  00000-0  27075-3 0  9994,2 52120  53.2169  20.0275 0001366  87.6605 272.4543 15.08848809125930,6917.853,95.437,540.663,538.773,0.0
52120.0,STARLINK-3534,PAYLOAD,2024-06-19 20:09:16,15.08841502,0.0001672,53.2192,17.6462,96.3949,263.7233,6.3289e-05,7.19e-06,0.0,0 STARLINK-3534,1 52120U 22029AJ  24171.83977044  .00000719  00000-0  63289-4 0  9991,2 52120  53.2192  17.6462 0001672  96.3949 263.7233 15.08841502126016,6917.876,95.437,540.897,538.584,0.0
52120.0,STARLINK-3534,PAYLOAD,2024-06-20 07:16:57,15.08843064,0.0001354,53.2168,15.5632,116.804,243.3091,0.00011082,1.476e-05,0.0,0 STARLINK-3534,1 52120U 22029AJ  24172.30344768  .00001476  00000-0  11082-3 0  9999,2 52120  53.2168  15.5632 0001354 116.8040 243.3091 15.08843064126080,6917.871,95.437,540.673,538.799,0.0
52120.0,STARLINK-3534,PAYLOAD,2024-06-20 20:00:03,15.08842095,0.000148,53.2179,13.184,116.5482,243.5662,6.2826e-05,7.12e-06,0.0,0 STARLINK-3534,1 52120U 22029AJ  24172.83336915  .00000712  00000-0  62826-4 0  9997,2 52120  53.2179  13.1840 0001480 116.5482 243.5662 15.08842095126162,6917.874,95.437,540.763,538.715,0.0
